[{"OBJECT_NAME":"YAOGAN-7","OBJECT_ID":"2009-069A","EPOCH":"2026-03-09T15:13:41.910240","MEAN_MOTION":14.77892763,"ECCENTRICITY":0.0024777,"INCLINATION":98.0209,"RA_OF_ASC_NODE":315.0474,"ARG_OF_PERICENTER":3.5312,"MEAN_ANOMALY":356.6068,"EPHEMERIS_TYPE":0,"CLASSIFICATION_TYPE":"U","NORAD_CAT_ID":36110,"ELEMENT_SET_NO":999,"REV_AT_EPOCH":87492,"BSTAR":0.00013889,"MEAN_MOTION_DOT":9.51e-6,"MEAN_MOTION_DDOT":0},{"OBJECT_NAME":"IRIDIUM 33 DEB","OBJECT_ID":"1997-051RX","EPOCH":"2026-03-09T13:24:32.944896","MEAN_MOTION":14.72404187,"ECCENTRICITY":0.00186074,"INCLINATION":86.3248,"RA_OF_ASC_NODE":286.1664,"ARG_OF_PERICENTER":259.386,"MEAN_ANOMALY":100.5261,"EPHEMERIS_TYPE":0,"CLASSIFICATION_TYPE":"U","NORAD_CAT_ID":35744,"ELEMENT_SET_NO":999,"REV_AT_EPOCH":88608,"BSTAR":0.001082238,"MEAN_MOTION_DOT":6.897e-5,"MEAN_MOTION_DDOT":0}]
